0 BREEZE-M DEB
1 38894U 12044AB  13282.03222077  .00176747  56907-5  43039-2 0  3823
2 38894 049.7837 332.3615 2227814 120.1332 263.8878 10.99457097 37646
0 BREEZE-M DEB
1 38894U 12044AB  13282.48666701  .00182541  58479-5  44392-2 0  3837
2 38894 049.7836 331.1969 2226794 121.1078 262.7276 10.99682129 37699
0 BREEZE-M DEB
1 38894U 12044AB  13283.12274999  .00171547  55496-5  41771-2 0  3842
2 38894 049.7828 329.5684 2225817 122.4737 261.0929 10.99873272 37762
0 BREEZE-M DEB
1 38894U 12044AB  13284.12205689  .00167338  54354-5  40767-2 0  3853
2 38894 049.7823 327.0064 2224347 124.6243 258.4864 11.00172887 37861
0 BREEZE-M DEB
1 38894U 12044AB  13285.30268706  .00157804  51927-5  38474-2 0  3866
2 38894 049.7824 323.9759 2222551 127.1687 255.3495 11.00539821 37998
0 BREEZE-M DEB
1 38894U 12044AB  13287.11825942  .00157880  51800-5  38629-2 0  3875
2 38894 049.7817 319.3138 2219737 131.0730 250.4260 11.01076388 38199
0 BREEZE-M DEB
1 38894U 12044AB  13288.11641476  .00214593  67740-5  52308-2 0  3880
2 38894 049.7807 316.7498 2218053 133.2182 247.6639 11.01448525 38300
0 BREEZE-M DEB
1 38894U 12044AB  13289.11419348  .00199972  63064-5  48737-2 0  3892
2 38894 049.7803 314.1827 2216219 135.3706 244.8521 11.01834836 38416
0 BREEZE-M DEB
1 38894U 12044AB  13290.11164216  .00194003  61184-5  47252-2 0  3909
2 38894 049.7800 311.6154 2214659 137.5229 242.0052 11.02168009 38522
0 BREEZE-M DEB
1 38894U 12044AB  13291.29002280  .00189626  59798-5  46158-2 0  3919
2 38894 049.7791 308.5825 2212631 140.0599 238.5996 11.02597132 38652
0 BREEZE-M DEB
1 38894U 12044AB  13292.10555256  .00181513  57427-5  44175-2 0  3928
2 38894 049.7792 306.4807 2211306 141.8215 236.2061 11.02877065 38746
0 BREEZE-M DEB
1 38894U 12044AB  13293.19259429  .00188550  59278-5  45798-2 0  3938
2 38894 049.7791 303.6778 2209648 144.1715 232.9773 11.03242270 38869
0 BREEZE-M DEB
1 38894U 12044AB  13294.09817791  .00194032  60760-5  47094-2 0  3942
2 38894 049.7791 301.3419 2208252 146.1295 230.2562 11.03538684 38966
0 BREEZE-M DEB
1 38894U 12044AB  13294.36980010  .00206070  64384-5  49893-2 0  3959
2 38894 049.7793 300.6397 2207895 146.7215 229.4287 11.03639805 38999
0 BREEZE-M DEB
1 38894U 12044AB  13295.09401508  .00198581  61993-5  48103-2 0  3964
2 38894 049.7792 298.7711 2206730 148.2846 227.2299 11.03877322 39076
0 BREEZE-M DEB
1 38894U 12044AB  13295.18453383  .00209482  65363-5  50686-2 0  3970
2 38894 049.7793 298.5373 2206577 148.4793 226.9548 11.03919892 39084
0 BREEZE-M DEB
1 38894U 12044AB  13295.99905156  .00201649  62815-5  48701-2 0  3981
2 38894 049.7793 296.4335 2205261 150.2436 224.4512 11.04218529 39177
